{
  "norad_id": 57682,
  "name": "STARLINK-30297",
  "history": [
    {
      "epoch": "2026-03-28T19:32:29.067648Z",
      "apogee_km": 476.3830252370126,
      "perigee_km": 474.19911184869034,
      "latitude_deg": 4.9750289587770875e-06,
      "longitude_deg": -1.166384482774747,
      "height_km": 476.1220418817492,
      "semi_major_axis_km": 6853.428068542851,
      "eccentricity": 0.00015933,
      "inclination_deg": 53.1607,
      "raan_deg": 118.184,
      "arg_perigee_deg": 86.4969,
      "mean_anomaly_deg": 273.6214,
      "mean_motion_rev_day": 15.30174547
    },
    {
      "epoch": "2026-03-29T01:48:41.276736Z",
      "apogee_km": 476.1729176275012,
      "perigee_km": 474.3389496784557,
      "latitude_deg": 2.418706451472914e-05,
      "longitude_deg": -96.68764353845667,
      "height_km": 475.9650276643846,
      "semi_major_axis_km": 6853.392933652978,
      "eccentricity": 0.0001338,
      "inclination_deg": 53.1601,
      "raan_deg": 116.9711,
      "arg_perigee_deg": 78.1098,
      "mean_anomaly_deg": 282.0053,
      "mean_motion_rev_day": 15.30186314
    },
    {
      "epoch": "2026-03-30T01:19:28.027200Z",
      "apogee_km": 476.11726171107694,
      "perigee_km": 474.32031182378614,
      "latitude_deg": 4.271787434332592e-05,
      "longitude_deg": -94.89766683081527,
      "height_km": 475.95563859310266,
      "semi_major_axis_km": 6853.355786767432,
      "eccentricity": 0.0001311,
      "inclination_deg": 53.16,
      "raan_deg": 112.4215,
      "arg_perigee_deg": 79.6648,
      "mean_anomaly_deg": 280.4501,
      "mean_motion_rev_day": 15.30198755
    },
    {
      "epoch": "2026-03-30T06:01:38.095968Z",
      "apogee_km": 476.2061752218824,
      "perigee_km": 474.265574158685,
      "latitude_deg": 5.7174656096021015e-06,
      "longitude_deg": -166.5443843764741,
      "height_km": 476.1583655139717,
      "semi_major_axis_km": 6853.372874690283,
      "eccentricity": 0.00014158,
      "inclination_deg": 53.1614,
      "raan_deg": 111.5099,
      "arg_perigee_deg": 91.4451,
      "mean_anomaly_deg": 268.6712,
      "mean_motion_rev_day": 15.30193032
    },
    {
      "epoch": "2026-03-30T07:35:41.311104Z",
      "apogee_km": 476.2191873705333,
      "perigee_km": 474.2522693974861,
      "latitude_deg": 1.0022278539862641e-05,
      "longitude_deg": 169.57524511439672,
      "height_km": 476.07621541561366,
      "semi_major_axis_km": 6853.372728384009,
      "eccentricity": 0.0001435,
      "inclination_deg": 53.1612,
      "raan_deg": 111.2073,
      "arg_perigee_deg": 86.6488,
      "mean_anomaly_deg": 273.4677,
      "mean_motion_rev_day": 15.30193081
    },
    {
      "epoch": "2026-03-30T18:34:04.184256Z",
      "apogee_km": 476.2379347898586,
      "perigee_km": 474.27060029259883,
      "latitude_deg": 2.5686441583507917e-06,
      "longitude_deg": 2.4045893581963647,
      "height_km": 476.348251491933,
      "semi_major_axis_km": 6853.391267541228,
      "eccentricity": 0.00014353,
      "inclination_deg": 53.1618,
      "raan_deg": 109.0826,
      "arg_perigee_deg": 101.4882,
      "mean_anomaly_deg": 258.628,
      "mean_motion_rev_day": 15.30186872
    },
    {
      "epoch": "2026-03-31T18:04:51.859200Z",
      "apogee_km": 476.09067095683895,
      "perigee_km": 474.3773282069442,
      "latitude_deg": 2.531471660054664e-06,
      "longitude_deg": 4.189890471191814,
      "height_km": 476.13777754442344,
      "semi_major_axis_km": 6853.370999581892,
      "eccentricity": 0.000125,
      "inclination_deg": 53.161,
      "raan_deg": 104.5322,
      "arg_perigee_deg": 90.3726,
      "mean_anomaly_deg": 269.7418,
      "mean_motion_rev_day": 15.3019366
    },
    {
      "epoch": "2026-04-01T17:35:39.703488Z",
      "apogee_km": 476.1203823713313,
      "perigee_km": 474.37002855605715,
      "latitude_deg": 1.421276669910629e-05,
      "longitude_deg": 5.974992713833392,
      "height_km": 476.19386692123186,
      "semi_major_axis_km": 6853.382205463694,
      "eccentricity": 0.0001277,
      "inclination_deg": 53.1604,
      "raan_deg": 99.9823,
      "arg_perigee_deg": 93.3117,
      "mean_anomaly_deg": 266.803,
      "mean_motion_rev_day": 15.30189907
    },
    {
      "epoch": "2026-04-02T17:06:27.306720Z",
      "apogee_km": 476.0988703665071,
      "perigee_km": 474.3656532801915,
      "latitude_deg": -6.923608908268253e-06,
      "longitude_deg": 7.760477232787396,
      "height_km": 476.20615591824213,
      "semi_major_axis_km": 6853.369261823349,
      "eccentricity": 0.00012645,
      "inclination_deg": 53.1602,
      "raan_deg": 95.4318,
      "arg_perigee_deg": 95.017,
      "mean_anomaly_deg": 265.0975,
      "mean_motion_rev_day": 15.30194242
    },
    {
      "epoch": "2026-04-03T16:37:15.834432Z",
      "apogee_km": 475.87737829854086,
      "perigee_km": 474.62320842385634,
      "latitude_deg": 5.2032934278887374e-05,
      "longitude_deg": 9.54195820082872,
      "height_km": 476.1883919218282,
      "semi_major_axis_km": 6853.387293361198,
      "eccentricity": 9.15e-05,
      "inclination_deg": 53.159,
      "raan_deg": 90.8811,
      "arg_perigee_deg": 93.6264,
      "mean_anomaly_deg": 266.4842,
      "mean_motion_rev_day": 15.30188203
    },
    {
      "epoch": "2026-04-04T08:17:47.363712Z",
      "apogee_km": 476.005705707772,
      "perigee_km": 474.4445098196238,
      "latitude_deg": -1.0559146418669739e-05,
      "longitude_deg": 130.73207239284056,
      "height_km": 476.1570583535935,
      "semi_major_axis_km": 6853.362107763698,
      "eccentricity": 0.0001139,
      "inclination_deg": 53.1604,
      "raan_deg": 87.8464,
      "arg_perigee_deg": 92.4709,
      "mean_anomaly_deg": 267.6422,
      "mean_motion_rev_day": 15.30196638
    },
    {
      "epoch": "2026-04-05T09:22:39.032256Z",
      "apogee_km": 476.086301193046,
      "perigee_km": 474.4242165024307,
      "latitude_deg": -5.250748778713232e-05,
      "longitude_deg": 108.63331336725265,
      "height_km": 476.1693914289989,
      "semi_major_axis_km": 6853.392258847738,
      "eccentricity": 0.00012126,
      "inclination_deg": 53.1604,
      "raan_deg": 82.993,
      "arg_perigee_deg": 91.0986,
      "mean_anomaly_deg": 269.0153,
      "mean_motion_rev_day": 15.3018654
    },
    {
      "epoch": "2026-04-05T15:38:51.432288Z",
      "apogee_km": 476.0742467507198,
      "perigee_km": 474.39654118867566,
      "latitude_deg": 1.718560760331115e-05,
      "longitude_deg": 13.11099370889384,
      "height_km": 476.1802061004487,
      "semi_major_axis_km": 6853.372393969697,
      "eccentricity": 0.0001224,
      "inclination_deg": 53.161,
      "raan_deg": 81.7798,
      "arg_perigee_deg": 93.1825,
      "mean_anomaly_deg": 266.9316,
      "mean_motion_rev_day": 15.30193193
    },
    {
      "epoch": "2026-04-06T05:45:19.958976Z",
      "apogee_km": 476.03142638101326,
      "perigee_km": 474.39923199029454,
      "latitude_deg": 3.520832052807412e-05,
      "longitude_deg": 158.18255286380545,
      "height_km": 476.1927223859671,
      "semi_major_axis_km": 6853.352329185654,
      "eccentricity": 0.00011908,
      "inclination_deg": 53.1607,
      "raan_deg": 79.0496,
      "arg_perigee_deg": 95.5645,
      "mean_anomaly_deg": 264.5492,
      "mean_motion_rev_day": 15.30199913
    },
    {
      "epoch": "2026-04-07T05:16:08.229216Z",
      "apogee_km": 476.1207807089786,
      "perigee_km": 474.3550771922828,
      "latitude_deg": -3.586284338360887e-05,
      "longitude_deg": 159.96491001497787,
      "height_km": 476.0399220800139,
      "semi_major_axis_km": 6853.37492895063,
      "eccentricity": 0.00012882,
      "inclination_deg": 53.1612,
      "raan_deg": 74.4988,
      "arg_perigee_deg": 83.7443,
      "mean_anomaly_deg": 276.3704,
      "mean_motion_rev_day": 15.30192344
    },
    {
      "epoch": "2026-04-08T04:46:56.183232Z",
      "apogee_km": 476.1480969729437,
      "perigee_km": 474.3178359896938,
      "latitude_deg": 2.4994717269122855e-05,
      "longitude_deg": 161.74888628880512,
      "height_km": 476.0253608729454,
      "semi_major_axis_km": 6853.369966481318,
      "eccentricity": 0.00013353,
      "inclination_deg": 53.1607,
      "raan_deg": 69.9482,
      "arg_perigee_deg": 83.369,
      "mean_anomaly_deg": 276.7463,
      "mean_motion_rev_day": 15.30194006
    },
    {
      "epoch": "2026-04-09T07:25:50.427552Z",
      "apogee_km": 476.1677391054882,
      "perigee_km": 474.2952617637993,
      "latitude_deg": 4.936207343227378e-05,
      "longitude_deg": 115.77007212033168,
      "height_km": 475.9860651686861,
      "semi_major_axis_km": 6853.3685004346435,
      "eccentricity": 0.00013661,
      "inclination_deg": 53.161,
      "raan_deg": 64.7898,
      "arg_perigee_deg": 81.1833,
      "mean_anomaly_deg": 278.9323,
      "mean_motion_rev_day": 15.30194497
    },
    {
      "epoch": "2026-04-10T06:56:38.067936Z",
      "apogee_km": 476.18706056820974,
      "perigee_km": 474.25770283507336,
      "latitude_deg": 5.569723817341685e-06,
      "longitude_deg": 117.5535810115845,
      "height_km": 476.2347950438156,
      "semi_major_axis_km": 6853.359381701641,
      "eccentricity": 0.00014076,
      "inclination_deg": 53.1615,
      "raan_deg": 60.2375,
      "arg_perigee_deg": 96.8081,
      "mean_anomaly_deg": 263.308,
      "mean_motion_rev_day": 15.30197551
    },
    {
      "epoch": "2026-04-11T14:17:42.597888Z",
      "apogee_km": 476.1773909668673,
      "perigee_km": 474.32971687352983,
      "latitude_deg": 3.8533989994622466e-05,
      "longitude_deg": -0.06882228139264872,
      "height_km": 476.2407179811075,
      "semi_major_axis_km": 6853.390553920198,
      "eccentricity": 0.0001348,
      "inclination_deg": 53.1624,
      "raan_deg": 54.1715,
      "arg_perigee_deg": 95.5247,
      "mean_anomaly_deg": 264.5908,
      "mean_motion_rev_day": 15.30187111
    }
  ]
}